NORAD_CAT_ID,OBJECT_NAME,OBJECT_TYPE,EPOCH,MEAN_MOTION,ECCENTRICITY,INCLINATION,RA_OF_ASC_NODE,ARG_OF_PERICENTER,MEAN_ANOMALY,BSTAR,MEAN_MOTION_DOT,MEAN_MOTION_DDOT,TLE_LINE0,TLE_LINE1,TLE_LINE2,SEMIMAJOR_AXIS,PERIOD,APOGEE,PERIGEE,DECAYED
53546.0,STARLINK-4477,PAYLOAD,2024-07-13 11:05:27,15.08838162,0.0001233,53.2165,246.1343,88.2203,271.893,6.9328e-05,8.16e-06,0.0,0 STARLINK-4477,1 53546U 22101V   24195.46212129  .00000816  00000-0  69328-4 0  9994,2 53546  53.2165 246.1343 0001233  88.2203 271.8930 15.08838162105235,6917.886,95.438,540.604,538.898,0.0
53546.0,STARLINK-4477,PAYLOAD,2024-07-13 20:37:45,15.08845075,0.0001273,53.2167,244.3521,87.2635,272.8503,0.00010668,1.411e-05,0.0,0 STARLINK-4477,1 53546U 22101V   24195.85955704  .00001411  00000-0  10668-3 0  9994,2 53546  53.2167 244.3521 0001273  87.2635 272.8503 15.08845075105291,6917.865,95.437,540.611,538.849,0.0
53546.0,STARLINK-4477,PAYLOAD,2024-07-14 09:20:51,15.08839821,0.0001168,53.2156,241.9738,93.0452,267.0674,3.5253e-06,-2.32e-06,0.0,0 STARLINK-4477,1 53546U 22101V   24196.38948281 -.00000232  00000-0  35253-5 0  9995,2 53546  53.2156 241.9738 0001168  93.0452 267.0674 15.08839821105373,6917.881,95.438,540.554,538.938,0.0
53546.0,STARLINK-4477,PAYLOAD,2024-07-14 20:28:32,15.08848029,0.0001339,53.2163,239.8896,87.9033,272.2113,4.7847e-05,4.74e-06,0.0,0 STARLINK-4477,1 53546U 22101V   24196.85315606  .00000474  00000-0  47847-4 0  9994,2 53546  53.2163 239.8896 0001339  87.9033 272.2113 15.08848029105443,6917.856,95.437,540.647,538.795,0.0
53546.0,STARLINK-4477,PAYLOAD,2024-07-15 09:11:37,15.0884203,0.0001344,53.2155,237.511,88.6847,271.4299,0.00014,1.941e-05,0.0,0 STARLINK-4477,1 53546U 22101V   24197.38307809  .00001941  00000-0  14000-3 0  9993,2 53546  53.2155 237.5110 0001344  88.6847 271.4299 15.08842030105526,6917.874,95.437,540.669,538.809,0.0
53546.0,STARLINK-4477,PAYLOAD,2024-07-15 20:19:19,15.08848254,0.0001311,53.2161,235.4295,103.8691,256.2447,0.0001135,1.519e-05,0.0,0 STARLINK-4477,1 53546U 22101V   24197.84675256  .00001519  00000-0  11350-3 0  9994,2 53546  53.2161 235.4295 0001311 103.8691 256.2447 15.08848254105592,6917.855,95.437,540.627,538.813,0.0
53546.0,STARLINK-4477,PAYLOAD,2024-07-16 09:02:25,15.08837546,0.0001523,53.217,233.0504,99.7818,260.3346,4.658e-05,4.53e-06,0.0,0 STARLINK-4477,1 53546U 22101V   24198.37668173  .00000453  00000-0  46580-4 0  9993,2 53546  53.2170 233.0504 0001523  99.7818 260.3346 15.08837546105673,6917.888,95.438,540.806,538.699,0.0
53546.0,STARLINK-4477,PAYLOAD,2024-07-17 08:53:12,15.0883742,0.0001189,53.2158,228.5928,88.1316,271.9812,5.1433e-05,5.31e-06,0.0,0 STARLINK-4477,1 53546U 22101V   24199.37028101  .00000531  00000-0  51433-4 0  9995,2 53546  53.2158 228.5928 0001189  88.1316 271.9812 15.08837420105825,6917.888,95.438,540.576,538.931,0.0
53546.0,STARLINK-4477,PAYLOAD,2024-07-18 08:44:00,15.08831075,0.0001283,53.2158,224.1316,90.8533,269.2606,3.2822e-05,2.34e-06,0.0,0 STARLINK-4477,1 53546U 22101V   24200.36388896  .00000234  00000-0  32822-4 0  9998,2 53546  53.2158 224.1316 0001283  90.8533 269.2606 15.08831075105971,6917.908,95.438,540.66,538.885,0.0
53546.0,STARLINK-4477,PAYLOAD,2024-07-18 18:16:18,15.08836824,0.000129,53.216,222.3462,92.8846,267.2294,3.7388e-05,3.07e-06,0.0,0 STARLINK-4477,1 53546U 22101V   24200.76132629  .00000307  00000-0  37388-4 0  9996,2 53546  53.2160 222.3462 0001290  92.8846 267.2294 15.08836824106039,6917.89,95.438,540.648,538.863,0.0
53546.0,STARLINK-4477,PAYLOAD,2024-07-19 05:24:00,15.08838678,0.0001288,53.2159,220.2637,82.4632,277.6507,8.5485e-05,1.073e-05,0.0,0 STARLINK-4477,1 53546U 22101V   24201.22500530  .00001073  00000-0  85485-4 0  9990,2 53546  53.2159 220.2637 0001288  82.4632 277.6507 15.08838678106102,6917.884,95.438,540.64,538.858,0.0
53546.0,STARLINK-4477,PAYLOAD,2024-07-19 08:34:46,15.08840974,0.0001288,53.216,219.6694,83.5479,276.566,0.00010331,1.357e-05,0.0,0 STARLINK-4477,1 53546U 22101V   24201.35748354  .00001357  00000-0  10331-3 0  9994,2 53546  53.2160 219.6694 0001288  83.5479 276.5660 15.08840974106122,6917.877,95.437,540.633,538.851,0.0
53546.0,STARLINK-4477,PAYLOAD,2024-07-19 18:07:05,15.08841688,0.0001293,53.216,217.8851,82.7655,277.3484,0.00011493,1.542e-05,0.0,0 STARLINK-4477,1 53546U 22101V   24201.75492213  .00001542  00000-0  11493-3 0  9994,2 53546  53.2160 217.8851 0001293  82.7655 277.3484 15.08841688106182,6917.875,95.437,540.635,538.846,0.0
53546.0,STARLINK-4477,PAYLOAD,2024-07-20 10:00:56,15.08838629,0.0001352,53.2165,214.9121,89.4837,270.631,0.00011921,1.61e-05,0.0,0 STARLINK-4477,1 53546U 22101V   24202.41732595  .00001610  00000-0  11921-3 0  9990,2 53546  53.2165 214.9121 0001352  89.4837 270.6310 15.08838629106283,6917.885,95.438,540.685,538.814,0.0
53546.0,STARLINK-4477,PAYLOAD,2024-07-21 08:16:21,15.08838659,0.0001379,53.2167,210.749,91.4625,268.6525,2.991e-05,1.88e-06,0.0,0 STARLINK-4477,1 53546U 22101V   24203.34468907  .00000188  00000-0  29910-4 0  9993,2 53546  53.2167 210.7490 0001379  91.4625 268.6525 15.08838659106429,6917.884,95.438,540.703,538.796,0.0
53546.0,STARLINK-4477,PAYLOAD,2024-07-22 04:56:21,15.08841786,0.000137,53.2165,206.8824,93.0357,267.0792,9.4369e-05,1.214e-05,0.0,0 STARLINK-4477,1 53546U 22101V   24204.20580507  .00001214  00000-0  94369-4 0  9991,2 53546  53.2165 206.8824 0001370  93.0357 267.0792 15.08841786106553,6917.875,95.437,540.688,538.792,0.0
53546.0,STARLINK-4477,PAYLOAD,2024-07-22 06:31:44,15.08844775,0.0001353,53.2161,206.5843,94.3688,265.7459,8.9644e-05,1.139e-05,0.0,0 STARLINK-4477,1 53546U 22101V   24204.27204309  .00001139  00000-0  89644-4 0  9997,2 53546  53.2161 206.5843 0001353  94.3688 265.7459 15.08844775106566,6917.866,95.437,540.667,538.795,0.0
53546.0,STARLINK-4477,PAYLOAD,2024-07-23 04:47:08,15.08842088,0.0001312,53.2156,202.4209,93.1398,266.9745,9.9494e-05,1.296e-05,0.0,0 STARLINK-4477,1 53546U 22101V   24205.19940398  .00001296  00000-0  99494-4 0  9992,2 53546  53.2156 202.4209 0001312  93.1398 266.9745 15.08842088106703,6917.874,95.437,540.647,538.831,0.0
53546.0,STARLINK-4477,PAYLOAD,2024-07-24 04:37:55,15.08837808,0.0001379,53.2159,197.9587,101.6445,258.4702,-6.911e-06,-3.98e-06,0.0,0 STARLINK-4477,1 53546U 22101V   24206.19300882 -.00000398  00000-0 -69110-5 0  9998,2 53546  53.2159 197.9587 0001379 101.6445 258.4702 15.08837808106853,6917.887,95.438,540.706,538.798,0.0
53546.0,STARLINK-4477,PAYLOAD,2024-07-24 09:24:05,15.08835343,0.0001345,53.2158,197.0686,97.4992,262.6153,-3.0679e-05,-7.76e-06,0.0,0 STARLINK-4477,1 53546U 22101V   24206.39173149 -.00000776  00000-0 -30679-4 0  9991,2 53546  53.2158 197.0686 0001345  97.4992 262.6153 15.08835343106887,6917.895,95.438,540.69,538.829,0.0
53546.0,STARLINK-4477,PAYLOAD,2024-07-25 06:04:05,15.0884067,0.0001331,53.2161,193.2033,96.8626,263.2518,6.2461e-05,7.06e-06,0.0,0 STARLINK-4477,1 53546U 22101V   24207.25284602  .00000706  00000-0  62461-4 0  9999,2 53546  53.2161 193.2033 0001331  96.8626 263.2518 15.08840670107014,6917.878,95.438,540.664,538.823,0.0
53546.0,STARLINK-4477,PAYLOAD,2024-07-26 04:19:30,15.08830553,0.0001342,53.2162,189.0405,101.9959,258.1184,4.602e-05,4.44e-06,0.0,0 STARLINK-4477,1 53546U 22101V   24208.18021416  .00000444  00000-0  46020-4 0  9996,2 53546  53.2162 189.0405 0001342 101.9959 258.1184 15.08830553107156,6917.909,95.438,540.703,538.846,0.0
53546.0,STARLINK-4477,PAYLOAD,2024-07-26 09:05:39,15.08831359,0.0001454,53.2169,188.1488,103.0828,257.0327,4.1076e-05,3.66e-06,0.0,0 STARLINK-4477,1 53546U 22101V   24208.37893476  .00000366  00000-0  41076-4 0  9999,2 53546  53.2169 188.1488 0001454 103.0828 257.0327 15.08831359107181,6917.907,95.438,540.778,538.766,0.0
53546.0,STARLINK-4477,PAYLOAD,2024-07-26 15:27:12,15.08838725,0.0001428,53.2171,186.9608,98.7908,261.3246,7.1951e-05,8.57e-06,0.0,0 STARLINK-4477,1 53546U 22101V   24208.64388991  .00000857  00000-0  71951-4 0  9990,2 53546  53.2171 186.9608 0001428  98.7908 261.3246 15.08838725107221,6917.884,95.438,540.737,538.761,0.0
53546.0,STARLINK-4477,PAYLOAD,2024-07-27 05:45:40,15.08839954,0.0001482,53.2179,184.285,104.1904,255.9253,4.2395e-05,3.87e-06,0.0,0 STARLINK-4477,1 53546U 22101V   24209.24005094  .00000387  00000-0  42395-4 0  9995,2 53546  53.2179 184.2850 0001482 104.1904 255.9253 15.08839954107319,6917.881,95.438,540.771,538.72,0.0
53546.0,STARLINK-4477,PAYLOAD,2024-07-28 04:01:04,15.08836629,0.0001508,53.2177,180.1219,104.5868,255.5291,8.9389e-05,1.135e-05,0.0,0 STARLINK-4477,1 53546U 22101V   24210.16741296  .00001135  00000-0  89389-4 0  9995,2 53546  53.2177 180.1219 0001508 104.5868 255.5291 15.08836629107452,6917.891,95.438,540.799,538.712,0.0
53546.0,STARLINK-4477,PAYLOAD,2024-07-28 21:30:19,15.08839394,0.0001347,53.217,176.8504,98.8856,261.2289,2.7776e-05,1.54e-06,0.0,0 STARLINK-4477,1 53546U 22101V   24210.89605426  .00000154  00000-0  27776-4 0  9991,2 53546  53.2170 176.8504 0001347  98.8856 261.2289 15.08839394107562,6917.882,95.438,540.679,538.815,0.0
53546.0,STARLINK-4477,PAYLOAD,2024-07-29 05:27:14,15.08840236,0.0001298,53.2164,175.3628,97.1819,262.9321,4.0139e-05,3.51e-06,0.0,0 STARLINK-4477,1 53546U 22101V   24211.22725419  .00000351  00000-0  40139-4 0  9991,2 53546  53.2164 175.3628 0001298  97.1819 262.9321 15.08840236107610,6917.88,95.438,540.643,538.847,0.0
53546.0,STARLINK-4477,PAYLOAD,2024-07-29 14:59:33,15.08846263,0.0001244,53.2163,173.5782,95.0614,265.052,8.5072e-05,1.067e-05,0.0,0 STARLINK-4477,1 53546U 22101V   24211.62468851  .00001067  00000-0  85072-4 0  9999,2 53546  53.2163 173.5782 0001244  95.0614 265.0520 15.08846263107678,6917.861,95.437,540.587,538.866,0.0
53546.0,STARLINK-4477,PAYLOAD,2024-07-30 03:42:39,15.08833414,0.0001358,53.2172,171.1984,101.8364,258.278,2.3188e-05,8.1e-07,0.0,0 STARLINK-4477,1 53546U 22101V   24212.15461888  .00000081  00000-0  23188-4 0  9996,2 53546  53.2172 171.1984 0001358 101.8364 258.2780 15.08833414107755,6917.901,95.438,540.705,538.826,0.0
